NORAD_CAT_ID,OBJECT_NAME,OBJECT_TYPE,EPOCH,MEAN_MOTION,ECCENTRICITY,INCLINATION,RA_OF_ASC_NODE,ARG_OF_PERICENTER,MEAN_ANOMALY,BSTAR,MEAN_MOTION_DOT,MEAN_MOTION_DDOT,TLE_LINE0,TLE_LINE1,TLE_LINE2,SEMIMAJOR_AXIS,PERIOD,APOGEE,PERIGEE,DECAYED
49756.0,STARLINK-3207,PAYLOAD,2022-02-26 14:00:01,15.40484715,0.0003831,53.2174,273.7991,8.6237,289.7992,-0.00093797,-0.00038821,0.0,0 STARLINK-3207,1 49756U 21115AJ  22057.58334491 -.00038821  00000-0 -93797-3 0  9996,2 49756  53.2174 273.7991 0003831   8.6237 289.7992 15.40484715 14464,6822.815,93.477,447.294,442.066,0.0
49756.0,STARLINK-3207,PAYLOAD,2022-02-26 22:00:00,15.40473138,0.0003933,53.2174,272.2407,10.7452,337.2353,0.00010106,3.755e-05,0.0,0 STARLINK-3207,1 49756U 21115AJ  22057.91667824  .00003755  00000-0  10106-3 0  9991,2 49756  53.2174 272.2407 0003933  10.7452 337.2353 15.40473138  3652,6822.849,93.478,447.397,442.03,0.0
49756.0,STARLINK-3207,PAYLOAD,2022-02-27 06:00:00,15.40488475,0.0003872,53.217,270.6692,9.5191,28.0671,-0.00095773,-0.00039632,0.0,0 STARLINK-3207,1 49756U 21115AJ  22058.25001157 -.00039632  00000-0 -95773-3 0  9998,2 49756  53.2170 270.6692 0003872   9.5191  28.0671 15.40488475 14564,6822.804,93.477,447.31,442.027,0.0
49756.0,STARLINK-3207,PAYLOAD,2022-02-27 14:00:01,15.40411854,0.0003775,53.2173,269.0911,12.5464,74.6192,0.0036969,0.001545,0.0,0 STARLINK-3207,1 49756U 21115AJ  22058.58334491  .00154500  00000-0  36969-2 0  9995,2 49756  53.2173 269.0911 0003775  12.5464  74.6192 15.40411854  3641,6823.03,93.481,447.471,442.319,0.0
49756.0,STARLINK-3207,PAYLOAD,2022-02-27 22:00:00,15.40453119,0.0004062,53.2167,267.5294,13.3055,123.4386,0.00062615,0.00025429,0.0,0 STARLINK-3207,1 49756U 21115AJ  22058.91667824  .00025429  00000-0  62615-3 0  9996,2 49756  53.2167 267.5294 0004062  13.3055 123.4386 15.40453119  3655,6822.908,93.479,447.544,442.002,0.0
49756.0,STARLINK-3207,PAYLOAD,2022-02-28 06:00:00,15.40496919,0.0003981,53.2162,265.9577,13.2875,173.0537,-0.00033092,-0.00014008,0.0,0 STARLINK-3207,1 49756U 21115AJ  22059.25001157 -.00014008  00000-0 -33092-3 0  9995,2 49756  53.2162 265.9577 0003981  13.2875 173.0537 15.40496919 14717,6822.779,93.476,447.36,441.92800000000005,0.0
49756.0,STARLINK-3207,PAYLOAD,2022-02-28 14:00:01,15.40482787,0.000379,53.2162,264.3865,13.1414,222.8151,-0.00040641,-0.00017096,0.0,0 STARLINK-3207,1 49756U 21115AJ  22059.58334491 -.00017096  00000-0 -40641-3 0  9999,2 49756  53.2162 264.3865 0003790  13.1414 222.8151 15.40482787  3649,6822.82,93.477,447.271,442.1,0.0
49756.0,STARLINK-3207,PAYLOAD,2022-02-28 22:00:00,15.40445356,0.0004093,53.2159,262.8178,12.1813,273.3844,0.00078759,0.00032109,0.0,0 STARLINK-3207,1 49756U 21115AJ  22059.91667824  .00032109  00000-0  78759-3 0  9996,2 49756  53.2159 262.8178 0004093  12.1813 273.3844 15.40445356  3645,6822.931,93.479,447.589,442.003,0.0
49756.0,STARLINK-3207,PAYLOAD,2022-03-01 14:00:01,15.40464107,0.0003818,53.2156,259.6748,12.4421,12.3006,0.00060022,0.00024364,0.0,0 STARLINK-3207,1 49756U 21115AJ  22060.58334491  .00024364  00000-0  60022-3 0  9990,2 49756  53.2156 259.6748 0003818  12.4421  12.3006 15.40464107 14920,6822.876,93.478,447.346,442.136,0.0
49756.0,STARLINK-3207,PAYLOAD,2022-03-01 22:00:01,15.4046759,0.0004077,53.2156,258.106,11.5191,62.8873,-0.00019686,-8.496e-05,0.0,0 STARLINK-3207,1 49756U 21115AJ  22060.91668981 -.00008496  00000-0 -19686-3 0  9991,2 49756  53.2156 258.1060 0004077  11.5191  62.8873 15.40467590  3652,6822.865,93.478,447.512,441.949,0.0
49756.0,STARLINK-3207,PAYLOAD,2022-03-02 06:00:00,15.40477225,0.0003921,53.2155,256.5339,10.1678,113.7673,-0.0012767,-0.00052589,0.0,0 STARLINK-3207,1 49756U 21115AJ  22061.25001157 -.00052589  00000-0 -12767-2 0  9999,2 49756  53.2155 256.5339 0003921  10.1678 113.7673 15.40477225 15028,6822.837,93.478,447.377,442.027,0.0
49756.0,STARLINK-3207,PAYLOAD,2022-03-02 14:00:01,15.40459539,0.0003858,53.2158,254.9629,11.4342,162.0929,0.00048422,0.00019561,0.0,0 STARLINK-3207,1 49756U 21115AJ  22061.58334491  .00019561  00000-0  48422-3 0  9994,2 49756  53.2158 254.9629 0003858  11.4342 162.0929 15.40459539 15070,6822.889,93.479,447.386,442.122,0.0
49756.0,STARLINK-3207,PAYLOAD,2022-03-02 22:00:00,15.40459988,0.0004168,53.216,253.394,10.5246,212.5959,5.444e-05,1.834e-05,0.0,0 STARLINK-3207,1 49756U 21115AJ  22061.91667824  .00001834  00000-0  54440-4 0  9992,2 49756  53.2160 253.3940 0004168  10.5246 212.5959 15.40459988  3642,6822.888000000001,93.479,447.597,441.909,0.0
49756.0,STARLINK-3207,PAYLOAD,2022-03-03 06:00:00,15.4046583,0.0004034,53.2161,251.8219,9.7168,262.9938,-0.00031883,-0.00013499,0.0,0 STARLINK-3207,1 49756U 21115AJ  22062.25001157 -.00013499  00000-0 -31883-3 0  9998,2 49756  53.2161 251.8219 0004034   9.7168 262.9938 15.40465830 15170,6822.871,93.478,447.48800000000006,441.983,0.0
49756.0,STARLINK-3207,PAYLOAD,2022-03-03 14:00:01,15.40470958,0.0003981,53.2165,250.2509,10.9912,311.3048,-0.00050646,-0.00021187,0.0,0 STARLINK-3207,1 49756U 21115AJ  22062.58334491 -.00021187  00000-0 -50646-3 0  9995,2 49756  53.2165 250.2509 0003981  10.9912 311.3048 15.40470958  3647,6822.855,93.478,447.437,442.004,0.0
49756.0,STARLINK-3207,PAYLOAD,2022-03-03 22:00:00,15.4043614,0.0004288,53.2167,248.6821,10.3754,1.5151,0.0012655,0.0005196,0.0,0 STARLINK-3207,1 49756U 21115AJ  22062.91667824  .00051960  00000-0  12655-2 0  9998,2 49756  53.2167 248.6821 0004288  10.3754   1.5151 15.40436140  3644,6822.958000000001,93.48,447.749,441.897,0.0
49756.0,STARLINK-3207,PAYLOAD,2022-03-04 06:00:02,15.40471529,0.0004141,53.2169,247.1097,9.9199,51.6231,-0.00058169,-0.00024265,0.0,0 STARLINK-3207,1 49756U 21115AJ  22063.25002315 -.00024265  00000-0 -58169-3 0  9995,2 49756  53.2169 247.1097 0004141   9.9199  51.6231 15.40471529 15334,6822.854,93.478,447.544,441.893,0.0
49756.0,STARLINK-3207,PAYLOAD,2022-03-04 14:00:01,15.40484178,0.0004163,53.2171,245.539,10.5917,100.5457,-0.00070502,-0.00029317,0.0,0 STARLINK-3207,1 49756U 21115AJ  22063.58335648 -.00029317  00000-0 -70502-3 0  9997,2 49756  53.2171 245.5390 0004163  10.5917 100.5457 15.40484178  3644,6822.816,93.477,447.522,441.841,0.0
49756.0,STARLINK-3207,PAYLOAD,2022-03-04 22:00:00,15.40429827,0.0004452,53.2172,243.9702,9.2122,151.4814,0.0016511,0.00068046,0.0,0 STARLINK-3207,1 49756U 21115AJ  22063.91667824  .00068046  00000-0  16511-2 0  9997,2 49756  53.2172 243.9702 0004452   9.2122 151.4814 15.40429827 15430,6822.977,93.48,447.879,441.804,0.0
49756.0,STARLINK-3207,PAYLOAD,2022-03-05 06:00:00,15.40481026,0.0004301,53.2172,242.3978,8.842,201.4438,-0.00038202,-0.00016097,0.0,0 STARLINK-3207,1 49756U 21115AJ  22064.25001157 -.00016097  00000-0 -38202-3 0  9999,2 49756  53.2172 242.3978 0004301   8.8420 201.4438 15.40481026  3611,6822.826,93.477,447.625,441.756,0.0
49756.0,STARLINK-3207,PAYLOAD,2022-03-05 14:00:01,15.40501249,0.0004264,53.2172,240.8276,9.2126,250.6721,-0.0010263,-0.00042446,0.0,0 STARLINK-3207,1 49756U 21115AJ  22064.58334491 -.00042446  00000-0 -10263-2 0  9998,2 49756  53.2172 240.8276 0004264   9.2126 250.6721 15.40501249  3623,6822.766,93.476,447.54,441.722,0.0
49756.0,STARLINK-3207,PAYLOAD,2022-03-05 16:00:00,15.4049887,0.0004369,53.2171,240.4355,9.0089,353.2825,-0.0012281,-0.00050655,0.0,0 STARLINK-3207,1 49756U 21115AJ  22064.66667824 -.00050655  00000-0 -12281-2 0  9999,2 49756  53.2171 240.4355 0004369   9.0089 353.2825 15.40498870 15553,6822.773,93.476,447.619,441.657,0.0
49756.0,STARLINK-3207,PAYLOAD,2022-03-05 22:00:01,15.40457098,0.0004523,53.2169,239.2586,7.9379,301.6344,0.00045148,0.00018208,0.0,0 STARLINK-3207,1 49756U 21115AJ  22064.91668981  .00018208  00000-0  45148-3 0  9997,2 49756  53.2169 239.2586 0004523   7.9379 301.6344 15.40457098  3651,6822.896,93.479,447.847,441.675,0.0
49756.0,STARLINK-3207,PAYLOAD,2022-03-06 06:00:00,15.40468257,0.0004256,53.2168,237.6863,7.0574,352.0712,0.00014813,5.694e-05,0.0,0 STARLINK-3207,1 49756U 21115AJ  22065.25001157  .00005694  00000-0  14813-3 0  9991,2 49756  53.2168 237.6863 0004256   7.0574 352.0712 15.40468257 15641,6822.863,93.478,447.632,441.825,0.0
49756.0,STARLINK-3207,PAYLOAD,2022-03-06 14:00:01,15.40497139,0.0004229,53.217,236.1163,6.9021,41.8255,-0.00082909,-0.00034398,0.0,0 STARLINK-3207,1 49756U 21115AJ  22065.58334491 -.00034398  00000-0 -82909-3 0  9993,2 49756  53.2170 236.1163 0004229   6.9021  41.8255 15.40497139  3616,6822.778,93.476,447.528,441.758,0.0
49756.0,STARLINK-3207,PAYLOAD,2022-03-06 22:00:00,15.40471459,0.0004431999999999,53.2166,234.5472,5.2337,93.1135,0.00014867,5.716e-05,0.0,0 STARLINK-3207,1 49756U 21115AJ  22065.91667824  .00005716  00000-0  14867-3 0  9997,2 49756  53.2166 234.5472 0004432   5.2337  93.1135 15.40471459  3618,6822.854,93.478,447.74300000000005,441.695,0.0
49756.0,STARLINK-3207,PAYLOAD,2022-03-07 12:00:00,15.40429103,0.0004071,53.2168,231.7969,2.3021,92.8331,0.00043675,0.00017582,0.0,0 STARLINK-3207,1 49756U 21115AJ  22066.50001157  .00017582  00000-0  43675-3 0  9997,2 49756  53.2168 231.7969 0004071   2.3021  92.8331 15.40429103 15837,6822.979,93.48,447.622,442.066,0.0
49756.0,STARLINK-3207,PAYLOAD,2022-03-07 22:00:00,15.40405275,0.0004349,53.2167,229.8359,0.9589,246.108,0.0013983,0.00057438,0.0,0 STARLINK-3207,1 49756U 21115AJ  22066.91667824  .00057438  00000-0  13983-2 0  9993,2 49756  53.2167 229.8359 0004349   0.9589 246.1080 15.40405275 15893,6823.049,93.482,447.882,441.947,0.0
49756.0,STARLINK-3207,PAYLOAD,2022-03-08 06:00:02,15.40397679,0.000413,53.217,228.2636,0.6681,296.0073,0.0012359,0.00050661,0.0,0 STARLINK-3207,1 49756U 21115AJ  22067.25002315  .00050661  00000-0  12359-2 0  9996,2 49756  53.2170 228.2636 0004130   0.6681 296.0073 15.40397679 15957,6823.071999999999,93.482,447.755,442.119,0.0
49756.0,STARLINK-3207,PAYLOAD,2022-03-08 14:00:01,15.40461958,0.0004191,53.2173,226.6939,1.774,344.389,0.00023795,9.395e-05,0.0,0 STARLINK-3207,1 49756U 21115AJ  22067.58334491  .00009395  00000-0  23795-3 0  9990,2 49756  53.2173 226.6939 0004191   1.7740 344.3890 15.40461958  3653,6822.882,93.478,447.606,441.887,0.0
